
STARLINK-31838          
1 60130U 24118T   24349.33630804  .00001698  00000+0  69426-4 0  9999
2 60130  53.1621 318.6765 0001223  84.1263 275.9878 15.30203477 27779
STARLINK-31785          
1 60131U 24118U   24349.31943176 -.00000155  00000+0  69179-5 0  9991
2 60131  53.1605 318.5765 0001711 108.3292 251.7895 15.30188145 27779
STARLINK-31792          
1 60132U 24118V   24349.17665510 -.00000341  00000+0  60831-6 0  9993
2 60132  53.1630 316.9307 0001337 104.7268 255.3881 15.30194166 27796
GOES 19                 
1 60133U 24119A   24349.08660451 -.00000171  00000+0  00000+0 0  9990
2 60133   0.0037 230.5272 0001198  73.2873  81.1408  1.00272072  1795
STARLINK-32043          
1 60135U 24120A   24348.96578207 -.00001459  00000+0 -26515-4 0  9992
2 60135  53.1602 253.8260 0000950  79.4550 280.6562 15.39606467 27223
STARLINK-32112          
1 60136U 24120B   24349.45731903  .00001251  00000+0  41249-4 0  9991
2 60136  53.1589 251.9208 0000962  92.2432 267.8683 15.39624504 27519
STARLINK-32050          
1 60137U 24120C   24349.45764474  .00004695  00000+0  12724-3 0  9991
2 60137  53.1602 251.9225 0000974 248.7992 111.2909 15.39631654 27132
STARLINK-32025          
1 60138U 24120D   24349.72650978  .00003312  00000+0  92732-4 0  9998
2 60138  53.1595 250.0405 0001203 104.7768 255.3370 15.39622204 27292
STARLINK-31867          
1 60139U 24120E   24349.44372196  .00008211  00000+0  21499-3 0  9995
2 60139  53.1600 251.8372 0000491 168.1371 191.9645 15.39625878 27294
STARLINK-31694          
1 60140U 24120F   24349.44803632  .00011091  00000+0  28683-3 0  9993
2 60140  53.1602 251.8595 0001531  81.2396 278.8782 15.39621916 27514
STARLINK-32036          
1 60141U 24120G   24349.45301492  .00002171  00000+0  64222-4 0  9991
2 60141  53.1600 251.8937 0001545  75.7436 284.3740 15.39628393 27513
STARLINK-32031          
1 60142U 24120H   24349.44338634  .00044444  00000+0  11139-2 0  9995
2 60142  53.1597 251.8299 0001483  85.2416 274.8758 15.39639080 27513
STARLINK-32027          
1 60143U 24120J   24349.75736796 -.00003131  00000+0 -93539-4 0  9997
2 60143  53.1596 249.4844 0001438  77.6438 282.4723 15.30224602 27575
STARLINK-32033          
1 60144U 24120K   24349.76364926  .00011262  00000+0  29100-3 0  9995
2 60144  53.1590 250.2716 0000834  64.9338 295.1754 15.39632778 27341
STARLINK-32029          
1 60145U 24120L   24349.75436457  .00018568  00000+0  47270-3 0  9998
2 60145  53.1596 250.2134 0000884  99.6810 260.4294 15.39642654 27402
STARLINK-32127          
1 60146U 24120M   24349.45267239  .00004899  00000+0  13230-3 0  9997
2 60146  53.1596 251.8911 0000920  91.5744 268.5366 15.39635901 27294
STARLINK-32019          
1 60147U 24120N   24349.73080873  .00019085  00000+0  48568-3 0  9991
2 60147  53.1597 250.0635 0001394 104.3518 255.7642 15.39635149 27400
STARLINK-32021          
1 60148U 24120P   24349.74020830  .00035283  00000+0  10681-2 0  9992
2 60148  53.1583 250.1278 0000443  26.1108 333.9917 15.33873781 27561
STARLINK-32022          
1 60149U 24120Q   24348.96610193  .00007643  00000+0  20074-3 0  9990
2 60149  53.1597 253.8252 0001324 129.0637 231.0485 15.39640099 27443
STARLINK-32014          
1 60150U 24120R   24349.73579967 -.00001285  00000+0 -22144-4 0  9990
2 60150  53.1603 250.0963 0001321  89.6630 270.4526 15.39612524 27403
STARLINK-32004          
1 60151U 24120S   24349.74043639 -.00002410  00000+0 -50264-4 0  9999
2 60151  53.1599 250.1247 0001117  94.0926 266.0206 15.39630126 27566
STARLINK-32147          
1 60152U 24120T   24349.44836524  .00013563  00000+0  34820-3 0  9998
2 60152  53.1613 251.8611 0001028 103.1038 257.0082 15.39641595 27355
STARLINK-32131          
1 60153U 24120U   24349.75868258 -.00000971  00000+0 -14310-4 0  9996
2 60153  53.1599 250.2428 0001243  90.3653 269.7494 15.39610620 27562
STARLINK-32145          
1 60154U 24120V   24349.73546032  .00002090  00000+0  62250-4 0  9996
2 60154  53.1602 250.0932 0001028  90.1490 269.9632 15.39602636 27445
STARLINK-32137          
1 60155U 24120W   24349.16515110  .00001289  00000+0  42192-4 0  9999
2 60155  53.1597 252.9341 0000910  98.4456 261.6652 15.39619328 27308
STARLINK-32048          
1 60156U 24120X   24349.75402959  .00023795  00000+0  60248-3 0  9998
2 60156  53.1584 250.2096 0001154  40.0249 320.0841 15.39646080 27403
STARLINK-32129          
1 60157U 24120Y   24349.76331779  .00009631  00000+0  25044-3 0  9999
2 60157  53.1588 250.2664 0001036  86.6518 273.4605 15.39620786 27564
ZHONGXING-3A            
1 60179U 24122A   24348.75789902 -.00000301  00000+0  00000+0 0  9995
2 60179   0.0622  91.3497 0001985 201.5854 164.4160  1.00271940  1801
ILLUMA-T                
1 60181U 98067WR  24349.47616975  .00044075  00000+0  46282-3 0  9997
2 60181  51.6328 134.6784 0007889 278.5780  81.4320 15.63860269 26131
ALOS-4 (DAICHI-4)       
1 60182U 24123A   24349.70923796  .00003419  00000+0  46439-3 0  9999
2 60182  97.9224  83.7688 0001480  98.9094 261.2285 14.79481300 24632
STARLINK-11168 [DTC]    
1 60183U 24124A   24348.96461255 -.00000595  00000+0 -53893-7 0  9995
2 60183  53.1591 223.0903 0001123  99.0832 261.0313 15.69711598 26940
STARLINK-11187 [DTC]    
1 60184U 24124B   24349.08705536 -.00001561  00000+0 -80398-5 0  9995
2 60184  53.1587 222.4326 0000796  71.8318 288.2787 15.69698960 26943
STARLINK-11180 [DTC]    
1 60185U 24124C   24348.95480058  .00002821  00000+0  28138-4 0  9991
2 60185  53.1573 223.0233 0000910  77.4596 282.6524 15.69706718 26938
STARLINK-11197 [DTC]    
1 60186U 24124D   24349.65026082  .00005378  00000+0  49265-4 0  9997
2 60186  53.1584 219.5385 0000745  91.7552 268.3551 15.69685282 27031
STARLINK-11194 [DTC]    
1 60187U 24124E   24349.07233408 -.00000951  00000+0 -29841-5 0  9999
2 60187  53.1585 222.3294 0001809  73.6430 286.4787 15.69707236 26956
STARLINK-11189 [DTC]    
1 60188U 24124F   24349.13119491  .00081545  00000+0  67141-3 0  9991
2 60188  53.1570 222.7209 0000919 109.3293 250.7824 15.69707264 26942
STARLINK-11183 [DTC]    
1 60189U 24124G   24349.06262273 -.00002800  00000+0 -18268-4 0  9997
2 60189  53.1597 223.0013 0000556 132.7918 227.3147 15.69709371 26714
STARLINK-11179 [DTC]    
1 60190U 24124H   24349.37606131  .00012923  00000+0  11131-3 0  9994
2 60190  53.1577 221.3991 0000751  89.2436 270.8668 15.69719824 26779
STARLINK-11175 [DTC]    
1 60191U 24124J   24349.37116066 -.00002513  00000+0 -15890-4 0  9991
2 60191  53.1592 221.3697 0001231  98.9015 261.2142 15.69707902 26982
STARLINK-11173 [DTC]    
1 60192U 24124K   24349.36625064  .00002826  00000+0  28168-4 0  9991
2 60192  53.1578 221.3317 0000744 110.6841 249.4257 15.69711718 26988
STARLINK-11172 [DTC]    
1 60193U 24124L   24349.67968882  .00033120  00000+0  27678-3 0  9999
2 60193  53.1566 219.7302 0001196 107.7366 252.3783 15.69741537 26970
STARLINK-11152 [DTC]    
1 60194U 24124M   24349.03809346 -.00001306  00000+0 -59193-5 0  9991
2 60194  53.1586 222.8358 0001114  27.0639 333.0437 15.69715235 26942
STARLINK-11193 [DTC]    
1 60195U 24124N   24349.03318644  .00001395  00000+0  16378-4 0  9991
2 60195  53.1586 222.8058 0000736  88.2860 271.8242 15.69696570 26947
STARLINK-31869          
1 60196U 24124P   24349.73182002  .00082609  00000+0  20441-2 0  9997
2 60196  53.1603 252.6164 0001657 107.5244 252.5942 15.39750665 26486
STARLINK-32023          
1 60197U 24124Q   24349.45316108  .00002382  00000+0  72976-4 0  9995
2 60197  53.1612 254.4291 0001851  84.1899 275.9316 15.38056847 26439
STARLINK-32046          
1 60198U 24124R   24349.58334491 -.00002629  00000+0 -76693-4 0  9991
2 60198  53.1602 253.2427 0001325  96.5994 194.8415 15.30188011 26469
STARLINK-32049          
1 60199U 24124S   24349.83334491  .00021404  00000+0  73323-3 0  9996
2 60199  53.1607 252.2326 0001071  87.2658  66.5181 15.30177207 26497
STARLINK-32002          
1 60200U 24124T   24349.16667824  .00018157  00000+0  62407-3 0  9996
2 60200  53.1602 255.1911 0001408  82.3027  66.7466 15.30178381 26455
STARLINK-32020          
1 60201U 24124U   24349.83334491  .00008573  00000+0  30128-3 0  9998
2 60201  53.1581 251.7931 0001209  99.9312 274.8661 15.30193793 26628
STARLINK-32041          
1 60202U 24124V   24349.46306074  .00003471  00000+0  12916-3 0  9991
2 60202  53.1612 253.7761 0001029  99.8607 260.2510 15.30221793 26559
2024-125A               
1 60203U 24125A   24348.33123615  .00019780  00000+0  73666-3 0  9995
2 60203  97.2981 196.9006 0025123  53.2891 307.0651 15.27201600 24676
2024-125B               
1 60204U 24125B   24348.53772701  .00045779  00000+0  12623-2 0  9996
2 60204  97.2951 198.2408 0018106  36.5920 323.6558 15.36804707 24784
2024-125C               
1 60205U 24125C   24349.05110177  .00023834  00000+0  82019-3 0  9993
2 60205  97.2968 198.0330 0020418  42.9921 317.2910 15.29854935 24811
R5-S4                   
1 60206U 24125D   24348.82728013  .00012531  00000+0  49279-3 0  9995
2 60206  97.2983 197.2949 0025629  45.6805 314.6529 15.25483848 24742
R5-S2                   
1 60207U 24125E   24348.02785137  .00012857  00000+0  50016-3 0  9990
2 60207  97.2980 196.5341 0025747  49.5420 310.8058 15.25835126 24627
TECHEDSAT-11            
1 60208U 24125F   24348.04771950  .00013986  00000+0  54499-3 0  9994
2 60208  97.2985 196.5129 0025920  50.3671 309.9849 15.25756598 24631
MESAT1                  
1 60209U 24125G   24348.81108909  .00019461  00000+0  73284-3 0  9995
2 60209  97.2978 197.3091 0024530  53.3745 306.9745 15.26853695 24743
TIANHUI 5C              
1 60211U 24126A   24349.82066196  .00001093  00000+0  12468-3 0  9991
2 60211  97.8291 354.2068 0001647  98.4457 261.6947 14.88114282 24214
